CZ-2D R/B               
1 28738U 05024B   26162.67163557  .00052370  00000+0  45434-3 0  9995
2 28738  97.3492 181.8269 0004263  64.7947 295.3757 15.68959215154471
ALOS (DAICHI)           
1 28931U 06002A   26162.84944466  .00000879  00000+0  15478-3 0  9994
2 28931  98.1322 118.4335 0001646  58.1351 302.0014 14.70039419 87312
H-2A R/B                
1 28932U 06002B   26162.91309143  .00006301  00000+0  30417-3 0  9996
2 28932  98.2553 318.2658 0049621 280.7326  78.8321 15.17995315108724
RESURS-DK 1             
1 29228U 06021A   26162.94537913  .00002187  00000+0  12897-3 0  9997
2 29228  69.9338 353.1217 0006700 295.8467  64.2008 15.13194127101780
CZ-4B R/B               
1 29507U 06046C   26162.71489208  .00003414  00000+0  17059-3 0  9991
2 29507  97.5459 207.3388 0031175 302.7726  57.0505 15.17744091 74304
CZ-2C R/B               
1 31114U 07010B   26162.91718816  .00000060  00000+0  46248-4 0  9999
2 31114  98.4093 271.5260 0059334  21.4070 338.9570 14.20275034993099
COSMO-SKYMED 1          
1 31598U 07023A   26162.98850552  .00002044  00000+0  18247-3 0  9991
2 31598  97.8847 354.8014 0000998  89.5960 270.5376 14.97074685 29012
COSMOS 2428             
1 31792U 07029A   26162.90478742 -.00000141  00000+0 -50200-4 0  9996
2 31792  70.9372   5.5693 0007221 145.2270 214.9324 14.12929127977403
SL-16 R/B               
1 31793U 07029B   26162.95891902  .00000280  00000+0  16973-3 0  9999
2 31793  70.9764 334.2191 0002229 259.6810 215.1039 14.14852389978704
KORONAS-FOTON           
1 33504U 09003A   26162.57566910  .00010464  00000+0  21616-3 0  9996
2 33504  82.4288 178.1127 0011075 166.0575 194.0981 15.45608630960230
CZ-2C R/B               
1 37731U 11030B   26162.90868201  .00001079  00000+0  14129-3 0  9993
2 37731  97.8654 118.3902 0053433  44.8634  21.1153 14.81458397804042
H-2A R/B                
1 38341U 12025E   26162.93884935  .00002983  00000+0  26919-3 0  9996
2 38341  98.4817 137.6517 0044005   6.3952 353.7819 14.95688125762309
SHIJIAN-16 (SJ-16)      
1 39358U 13057A   26162.94422750  .00001015  00000+0  10121-3 0  9998
2 39358  74.9737   6.6142 0016901 242.9813 116.9651 14.92598588685560
SL-4 R/B                
1 39679U 14021B   26162.42517519  .00010157  00000+0  21183-3 0  9994
2 39679  51.6055 238.9984 0091459  85.0382 276.1037 15.41833581670722
ALOS-2                  
1 39766U 14029A   26162.93144325  .00000772  00000+0  11027-3 0  9994
2 39766  97.9211 260.1701 0001623  89.6554 270.4844 14.79471249650804
YAOGAN-29               
1 41038U 15069A   26162.98276297  .00000717  00000+0  94700-4 0  9992
2 41038  98.0036 191.6074 0002833  63.9984 296.1520 14.83082389569851
ASTRO-H (HITOMI)        
1 41337U 16012A   26162.15306176  .00002143  00000+0  12121-3 0  9993
2 41337  30.9976 113.1571 0009691 193.5931 166.4447 15.10484459566379
HXMT (HUIYAN)           
1 42758U 17034A   26162.60889608  .00004085  00000+0  20409-3 0  9997
2 42758  43.0133 214.1024 0030214 110.4509 249.9587 15.18442350496811
SAOCOM 1A               
1 43641U 18076A   26162.93769734  .00000856  00000+0  11408-3 0  9990
2 43641  97.8887 349.7631 0001584  79.6780 280.4611 14.82145082415327
H-2A R/B                
1 43682U 18084L   26162.75290960  .00020098  00000+0  42437-3 0  9990
2 43682  98.8595  40.4564 0024013  58.5180 301.8406 15.44947667420280
SAOCOM 1B               
1 46265U 20059A   26162.96895594  .00000592  00000+0  80925-4 0  9994
2 46265  97.8892 348.8888 0001519  82.2525 277.8860 14.82168332312715
CSS (TIANHE)            
1 48274U 21035A   26162.85778889  .00017149  00000+0  20495-3 0  9997
2 48274  41.4694 354.4301 0008161  33.9866 326.1495 15.60577765292334
COSMOS 2550             
1 48865U 21056A   26159.80793882  .00006310  00000+0  19790-3 0  9991
2 48865  67.1416 125.2525 0008705 266.0377  93.9783 15.33755463277435
CZ-2C R/B               
1 52794U 22058K   26162.54741186  .00032812  00000+0  37052-3 0  9992
2 52794  50.1845 192.8563 0032809 244.4691 115.2888 15.61464510224765
CZ-2C R/B               
1 54039U 22132E   26162.93007511  .00059570  00000+0  47266-3 0  9997
2 54039  97.2900 169.7214 0016728 100.5290 259.7859 15.70915470205125
GSLV R/B                
1 54149U 22138AN  26162.97149976  .00001860  00000+0  15752-3 0  9995
2 54149  87.3795 134.7357 0022092 161.5202 198.6838 14.97232416198039
XRISM                   
1 57800U 23137A   26162.91098969  .00004390  00000+0  24091-3 0  9998
2 57800  31.0029  33.7769 0007946 270.9614  89.0115 15.12420473152064
ACS3                    
1 59588U 24077B   26162.53459777  .00007151  00000+0  53553-2 0  9995
2 59588  97.1682  82.5854 0060015  68.1976 292.5561 13.93897959107259
CZ-8A R/B               
1 66004U 25231K   26162.95124534 -.00000048  00000+0  41333-4 0  9999
2 66004  50.0047  61.5920 0116475 205.5764 153.9361 14.30153411 34198
SZ-21 MODULE            
1 66515U 25246C   26162.19643143  .00041640  00000+0  26187-3 0  9991
2 66515  41.4739 344.6241 0007105 312.3917  47.6325 15.75880017 32796

ISS (ZARYA)             
1 25544U 98067A   26162.83551937  .00007284  00000+0  13937-3 0  9994
2 25544  51.6334 326.5798 0004934 175.2433 184.8603 15.49179015570924
POISK                   
1 36086U 09060A   26162.83551937  .00007284  00000+0  13937-3 0  9992
2 36086  51.6334 326.5798 0004934 175.2433 184.8603 15.49179015570769
CSS (TIANHE)            
1 48274U 21035A   26162.85778889  .00017149  00000+0  20495-3 0  9997
2 48274  41.4694 354.4301 0008161  33.9866 326.1495 15.60577765292334
ISS (NAUKA)             
1 49044U 21066A   26162.83551937  .00007284  00000+0  13937-3 0  9990
2 49044  51.6334 326.5798 0004934 175.2433 184.8603 15.49179015570767
FREGAT DEB              
1 49271U 11037PF  26151.14915702  .00018955  00000+0  30994-1 0  9992
2 49271  51.6227  53.0895 0914379 245.3590 104.9405 12.41880577222933
CSS (WENTIAN)           
1 53239U 22085A   26162.85778889  .00017149  00000+0  20495-3 0  9990
2 53239  41.4694 354.4301 0008161  33.9866 326.1495 15.60577765288235
CSS (MENGTIAN)          
1 54216U 22143A   26162.85778889  .00017149  00000+0  20495-3 0  9991
2 54216  41.4694 354.4301 0008161  33.9866 326.1495 15.60577765292843
HRC MONOBLOCK CAMERA    
1 66052U 98067XR  26162.67657665  .00076082  00000+0  54095-3 0  9992
2 66052  51.6257 307.4639 0001063 239.4224 120.6670 15.73188756 37132
SZ-21 MODULE            
1 66515U 25246C   26162.19643143  .00041640  00000+0  26187-3 0  9991
2 66515  41.4739 344.6241 0007105 312.3917  47.6325 15.75880017 32796
SOYUZ-MS 28             
1 66664U 25275A   26162.83551937  .00007284  00000+0  13937-3 0  9993
2 66664  51.6334 326.5798 0004934 175.2433 184.8603 15.49179015570764
DUPLEX                  
1 66906U 98067XS  26162.67957832  .00037867  00000+0  42609-3 0  9995
2 66906  51.6279 317.2774 0003801 181.7103 178.3879 15.62186284 29796
ISS OBJECT XY           
1 66912U 98067XY  26162.65435146  .00387320  69710-4  10377-2 0  9995
2 66912  51.6190 303.4567 0009009 297.6510  62.3582 15.93836830 29962
KNACKSAT-2              
1 67683U 98067XZ  26162.71234266  .00046941  00000+0  58268-3 0  9993
2 67683  51.6308 322.0071 0009845 191.1847 168.8928 15.59478995 19427
CORAL                   
1 67684U 98067YA  26162.67906194  .00183997  00000+0  12077-2 0  9995
2 67684  51.6237 316.4946 0009149 221.7066 138.3236 15.74589360 19494
GXIBA-1                 
1 67685U 98067YB  26162.65605621  .00055551  00000+0  64910-3 0  9993
2 67685  51.6289 321.6279 0011055 189.2620 170.8171 15.60974393 19423
UITMSAT-2               
1 67686U 98067YC  26162.67901862  .00074167  00000+0  76757-3 0  9998
2 67686  51.6278 320.2787 0006597 180.3120 179.7872 15.64020164 19443
LEOPARD                 
1 67687U 98067YD  26162.67987372  .00050616  00000+0  60633-3 0  9998
2 67687  51.6314 321.7991 0007128 171.3184 188.7934 15.60407815 19345
HMU-SAT2                
1 67688U 98067YE  26161.64001691  .00056298  00000+0  62243-3 0  9997
2 67688  51.6298 326.1003 0006967 170.9243 189.1878 15.62444427 19198
CREW DRAGON 12          
1 67796U 26031A   26162.83551937  .00007284  00000+0  13937-3 0  9991
2 67796  51.6334 326.5798 0004934 175.2433 184.8603 15.49179015571032
PROGRESS-MS 33          
1 68319U 26058A   26162.83551937  .00007284  00000+0  13937-3 0  9992
2 68319  51.6334 326.5798 0004934 175.2433 184.8603 15.49179015570763
CYGNUS NG-24            
1 68689U 26079A   26162.83551937  .00007284  00000+0  13937-3 0  9995
2 68689  51.6334 326.5798 0004934 175.2433 184.8603 15.49179015571034
PROGRESS-MS 34          
1 68837U 26093A   26162.83551937  .00007284  00000+0  13937-3 0  9996
2 68837  51.6334 326.5798 0004934 175.2433 184.8603 15.49179015571039
TIANZHOU-10             
1 69049U 26102A   26162.85778889  .00017149  00000+0  20495-3 0  9990
2 69049  41.4694 354.4301 0008161  33.9866 326.1495 15.60577765  4990
DRAGON CRS-34           
1 69103U 26107A   26162.83551937  .00007284  00000+0  13937-3 0  9999
2 69103  51.6334 326.5798 0004934 175.2433 184.8603 15.49179015570765
SHENZHOU-23 (SZ-23)     
1 69180U 26113A   26162.85778889  .00017149  00000+0  20495-3 0  9998
2 69180  41.4694 354.4301 0008161  33.9866 326.1495 15.60577765292579
